// Jest Snapshot v1, https://goo.gl/fbAQLP

exports[`empty metar renders nothing 1`] = `
<div
  class="Metars"
/>
`;

exports[`empty metar renders nothing 2`] = `
<div
  class="Metars"
/>
`;

exports[`metar renders properly 1`] = `
<div
  class="Metars"
>
  <div
    class="notif-text"
  >
    METAR CYMX 012000Z 24011G19KT 45SM DRSN FEW250 M14/M23 A3024 RMK CI2 SLP251
  </div>
  <div
    class="notif-text"
  >
    METAR CYMX 011900Z 24012G22KT 45SM DRSN FEW240 M14/M23 A3023 RMK CI1 SLP247
  </div>
  <div
    class="notif-text"
  >
    METAR CYMX 011800Z 24010G19KT 45SM FEW240 M15/M22 A3024 RMK CI1 SLP250
  </div>
  <div
    class="notif-text"
  >
    METAR CYMX 011800Z CCA 24010G19KT 45SM DRSN FEW240 M15/M22 A3024 RMK CI1 SLP250
  </div>
</div>
`;

exports[`metar renders properly 2`] = `
<div
  class="Metars"
>
  <div
    class="notif-text"
  >
    METAR EGPK 012020Z 00000KT 9999 SCT040 M01/M02 Q1002
  </div>
  <div
    class="notif-text"
  >
    METAR EGPK 011950Z 00000KT 8000 FEW020 SCT045 M01/M01 Q1002
  </div>
  <div
    class="notif-text"
  >
    METAR EGPK 011920Z 00000KT 8000 FEW020 SCT030 M00/M01 Q1001
  </div>
  <div
    class="notif-text"
  >
    METAR EGPK 011850Z 00000KT 8000 SCT030 00/M01 Q1001 RESN
  </div>
  <div
    class="notif-text"
  >
    METAR EGPK 011820Z 00000KT 9999 -SHSN SCT035 M01/M02 Q1001
  </div>
  <div
    class="notif-text"
  >
    METAR EGPK 011750Z 00000KT 9999 SCT035 M01/M03 Q1001
  </div>
  <div
    class="notif-text"
  >
    METAR EGPK 011720Z 00000KT 9999 FEW025 00/M03 Q1000
  </div>
</div>
`;

exports[`metar renders properly 3`] = `
<div
  class="Metars"
/>
`;
