// Jest Snapshot v1, https://goo.gl/fbAQLP

exports[`empty metar renders nothing 1`] = `
<div
  class="Metars"
/>
`;

exports[`empty metar renders nothing 2`] = `
<div
  class="Metars"
/>
`;

exports[`metar renders properly 1`] = `
<div
  class="Metars"
>
  <div
    class="notif-text"
  >
    SPECI CYMX 122220Z 05010G17KT 3/4SM R06/P6000FT/D -SN DRSN VV010 M13/M15 A3018 RMK SN8 SLP231
  </div>
  <div
    class="notif-text"
  >
    METAR CYMX 122200Z 05010G19KT 1SM R06/P6000FT/D R11/P6000FT/D -SN DRSN BKN012 OVC020 M13/M16 A3019 RMK SN6SF1SC1 SLP234
  </div>
  <div
    class="notif-text"
  >
    SPECI CYMX 122147Z 06011G19KT 2SM -SN BKN015 OVC021 M12/M18 A3019 RMK SN5SF2SC1 SLP234
  </div>
  <div
    class="notif-text"
  >
    SPECI CYMX 122130Z 06010G20KT 20SM -SN BKN034 OVC042 M13/M18 A3020 RMK SC6SC2 VIS S-SW 8 SLP238
  </div>
  <div
    class="notif-text"
  >
    METAR CYMX 122100Z 06009G21KT 45SM FEW025 OVC068 M13/M18 A3021 RMK SC1AS7 SLP240
  </div>
  <div
    class="notif-text"
  >
    METAR CYMX 122000Z 05012G18KT 020V090 45SM OVC090 M14/M20 A3025 RMK AS8 PRESFR SLP255
  </div>
</div>
`;

exports[`metar renders properly 2`] = `
<div
  class="Metars"
>
  <div
    class="notif-text"
  >
    METAR EGPK 122250Z 16008KT 9999 FEW025 08/07 Q1025
  </div>
  <div
    class="notif-text"
  >
    METAR EGPK 122220Z 16003KT 9999 FEW025 07/06 Q1025
  </div>
  <div
    class="notif-text"
  >
    METAR EGPK 122150Z VRB03KT 9999 FEW025 08/07 Q1025
  </div>
  <div
    class="notif-text"
  >
    METAR EGPK 122120Z VRB03KT 9999 FEW025 08/07 Q1025
  </div>
  <div
    class="notif-text"
  >
    METAR EGPK 122050Z 16004KT 9999 FEW025 09/08 Q1025
  </div>
  <div
    class="notif-text"
  >
    METAR EGPK 122020Z 20006KT 9999 FEW025 11/09 Q1026
  </div>
  <div
    class="notif-text"
  >
    METAR EGPK 121950Z 23009KT 9999 FEW025 11/09 Q1026
  </div>
  <div
    class="notif-text"
  >
    METAR EGPK 121920Z 22010KT 9999 FEW025 11/09 Q1025
  </div>
</div>
`;

exports[`metar renders properly 3`] = `
<div
  class="Metars"
/>
`;

exports[`metar renders properly 4`] = `
<div
  class="Metars"
/>
`;
