// Jest Snapshot v1, https://goo.gl/fbAQLP

exports[`empty taf renders empty 1`] = `
<div
  class="tafs"
/>
`;

exports[`no taf renders empty 1`] = `
<div
  class="tafs"
/>
`;

exports[`taf renders properly 1`] = `
<div
  class="tafs"
>
  <div
    class="notif-text"
  >
    TAF CYMX 121738Z 1218/1318 06010G20KT P6SM BKN200
  </div>
  <div
    class="notif-text"
  >
    FM122100 05012G22KT 6SM -SN SCT020 OVC090 TEMPO 1221/1222 21/2SM
     -SN OVC020
  </div>
  <div
    class="notif-text"
  >
    FM122200 05015G25KT 11/2SM -SN OVC020 TEMPO 1222/1224 3/4SM -SN
     OVC008
  </div>
  <div
    class="notif-text"
  >
    FM130000 06015G25KT 3/4SM -SN BLSN OVC012 TEMPO 1300/1303 1/2SM
     -SN BLSN OVC006
  </div>
  <div
    class="notif-text"
  >
    FM130300 06020G35KT 1/4SM SN BLSN VV004
  </div>
  <div
    class="notif-text"
  >
    FM130900 06020G30KT 3/4SM -SN BLSN OVC006
  </div>
  <div
    class="notif-text"
  >
    FM131300 05015G25KT 1SM -SN BLSN OVC008
  </div>
  <div
    class="notif-text"
  >
    FM131600 05008KT 6SM -SN BKN008 OVC015
  </div>
  <div
    class="notif-text"
  >
    RMK NXT FCST BY 130000Z
  </div>
</div>
`;

exports[`taf renders properly 2`] = `
<div
  class="tafs"
>
  <div
    class="notif-text"
  >
    TAF AMD EGPK 122117Z 1221/1318 19009KT 9999 FEW020 SCT030 TEMPO 1300/1310 BKN012
  </div>
  <div
    class="notif-text"
  >
    PROB30 TEMPO 1301/1303 4000 RADZ BKN007
  </div>
  <div
    class="notif-text"
  >
    PROB30 TEMPO 1303/1318 21015G25KT
  </div>
</div>
`;

exports[`taf renders properly 3`] = `
<div
  class="tafs"
/>
`;

exports[`taf renders properly 4`] = `
<div
  class="tafs"
/>
`;
